COSMOS 2058             
1 20465U 90010A   26079.96951321  .00003874  00000+0  22760-3 0  9998
2 20465  82.4677  36.3122 0007868 303.6167  56.4312 15.11413772943947
SL-14 R/B               
1 20466U 90010B   26079.95044443  .00000403  00000+0  45975-4 0  9995
2 20466  82.4988 256.8078 0018334 262.2608  97.6526 14.83578444930151
SL-14 R/B               
1 20511U 90018B   26079.77656181  .00000449  00000+0  53341-4 0  9998
2 20511  82.5224 212.7279 0017417  58.3908 301.9003 14.82155956924228
HST                     
1 20580U 90037B   26079.96933197  .00006928  00000+0  22655-3 0  9992
2 20580  28.4724 323.0445 0001513 249.9874 110.0559 15.29647672775041
SL-16 R/B               
1 20625U 90046B   26079.93720047  .00000085  00000+0  68655-4 0  9996
2 20625  70.9954 274.2905 0016216 284.7087  75.2238 14.15012103849985
COSMOS 2084             
1 20663U 90055A   26079.94576389  .00001815  00000+0  13860-3 0  9996
2 20663  62.7888 297.1858 0015364 193.1338 166.9365 15.05707581938011
SL-6 R/B(2)             
1 20666U 90055D   26079.41180285  .00001767  00000+0  14218-3 0  9991
2 20666  62.7816 217.3860 0026481 349.5511  10.5034 15.03644129939805
SL-8 R/B                
1 20775U 90078B   26079.93029102  .00013460  00000+0  39789-3 0  9997
2 20775  82.9011 241.1966 0359970 336.1332  22.3540 14.89393985810977
SL-8 R/B                
1 21088U 91006B   26079.97833222  .00000087  00000+0  71779-4 0  9994
2 21088  82.9457 161.6538 0022379   7.3892 166.1947 13.77495711765623
OKEAN-3                 
1 21397U 91039A   26079.65048493  .00002114  00000+0  14740-3 0  9993
2 21397  82.5186 326.2261 0012809 296.0526  63.9382 15.04873391866682
COSMOS 2151             
1 21422U 91042A   26079.95609732  .00001638  00000+0  12893-3 0  9995
2 21422  82.4935  72.8047 0013211  28.9315 331.2639 15.00149004864883
SL-14 R/B               
1 21423U 91042B   26079.76440987  .00000463  00000+0  55609-4 0  9998
2 21423  82.4943 209.7983 0016521 200.1363 159.9202 14.81840611854719
