CCSDS_OMM_VERS = 2.0
CREATION_DATE  = 
ORIGINATOR     = 

OBJECT_NAME    = COSMOS 2058
OBJECT_ID      = 1990-010A
CENTER_NAME    = EARTH
REF_FRAME      = TEME
TIME_SYSTEM    = UTC
MEAN_ELEMENT_THEORY = SGP/SGP4

EPOCH          = 2026-03-20T23:16:05.941344
MEAN_MOTION    = 15.11413772
ECCENTRICITY   = .00078689
INCLINATION    = 82.4677
RA_OF_ASC_NODE = 36.3122
ARG_OF_PERICENTER = 303.6167
MEAN_ANOMALY   = 56.4312

EPHEMERIS_TYPE = 0
CLASSIFICATION_TYPE = U
NORAD_CAT_ID   = 20465
ELEMENT_SET_NO = 999
REV_AT_EPOCH   = 94394
BSTAR          = .22759743E-3
MEAN_MOTION_DOT = .3874E-4
MEAN_MOTION_DDOT = 0

CCSDS_OMM_VERS = 2.0
CREATION_DATE  = 
ORIGINATOR     = 

OBJECT_NAME    = SL-14 R/B
OBJECT_ID      = 1990-010B
CENTER_NAME    = EARTH
REF_FRAME      = TEME
TIME_SYSTEM    = UTC
MEAN_ELEMENT_THEORY = SGP/SGP4

EPOCH          = 2026-03-20T22:48:38.398752
MEAN_MOTION    = 14.83578444
ECCENTRICITY   = .00183347
INCLINATION    = 82.4988
RA_OF_ASC_NODE = 256.8078
ARG_OF_PERICENTER = 262.2608
MEAN_ANOMALY   = 97.6526

EPHEMERIS_TYPE = 0
CLASSIFICATION_TYPE = U
NORAD_CAT_ID   = 20466
ELEMENT_SET_NO = 999
REV_AT_EPOCH   = 93015
BSTAR          = .45974695E-4
MEAN_MOTION_DOT = .403E-5
MEAN_MOTION_DDOT = 0

CCSDS_OMM_VERS = 2.0
CREATION_DATE  = 
ORIGINATOR     = 

OBJECT_NAME    = SL-14 R/B
OBJECT_ID      = 1990-018B
CENTER_NAME    = EARTH
REF_FRAME      = TEME
TIME_SYSTEM    = UTC
MEAN_ELEMENT_THEORY = SGP/SGP4

EPOCH          = 2026-03-20T18:38:14.940384
MEAN_MOTION    = 14.82155956
ECCENTRICITY   = .0017417
INCLINATION    = 82.5224
RA_OF_ASC_NODE = 212.7279
ARG_OF_PERICENTER = 58.3908
MEAN_ANOMALY   = 301.9003

EPHEMERIS_TYPE = 0
CLASSIFICATION_TYPE = U
NORAD_CAT_ID   = 20511
ELEMENT_SET_NO = 999
REV_AT_EPOCH   = 92422
BSTAR          = .53341E-4
MEAN_MOTION_DOT = .449E-5
MEAN_MOTION_DDOT = 0

CCSDS_OMM_VERS = 2.0
CREATION_DATE  = 
ORIGINATOR     = 

OBJECT_NAME    = HST
OBJECT_ID      = 1990-037B
CENTER_NAME    = EARTH
REF_FRAME      = TEME
TIME_SYSTEM    = UTC
MEAN_ELEMENT_THEORY = SGP/SGP4

EPOCH          = 2026-03-20T23:15:50.282208
MEAN_MOTION    = 15.29647672
ECCENTRICITY   = .00015139
INCLINATION    = 28.4724
RA_OF_ASC_NODE = 323.0445
ARG_OF_PERICENTER = 249.9874
MEAN_ANOMALY   = 110.0559

EPHEMERIS_TYPE = 0
CLASSIFICATION_TYPE = U
NORAD_CAT_ID   = 20580
ELEMENT_SET_NO = 999
REV_AT_EPOCH   = 77504
BSTAR          = .22654905E-3
MEAN_MOTION_DOT = .6928E-4
MEAN_MOTION_DDOT = 0

CCSDS_OMM_VERS = 2.0
CREATION_DATE  = 
ORIGINATOR     = 

OBJECT_NAME    = SL-16 R/B
OBJECT_ID      = 1990-046B
CENTER_NAME    = EARTH
REF_FRAME      = TEME
TIME_SYSTEM    = UTC
MEAN_ELEMENT_THEORY = SGP/SGP4

EPOCH          = 2026-03-20T22:29:34.120608
MEAN_MOTION    = 14.15012103
ECCENTRICITY   = .00162167
INCLINATION    = 70.9954
RA_OF_ASC_NODE = 274.2905
ARG_OF_PERICENTER = 284.7087
MEAN_ANOMALY   = 75.2238

EPHEMERIS_TYPE = 0
CLASSIFICATION_TYPE = U
NORAD_CAT_ID   = 20625
ELEMENT_SET_NO = 999
REV_AT_EPOCH   = 84998
BSTAR          = .68654577E-4
MEAN_MOTION_DOT = .85E-6
MEAN_MOTION_DDOT = 0

CCSDS_OMM_VERS = 2.0
CREATION_DATE  = 
ORIGINATOR     = 

OBJECT_NAME    = COSMOS 2084
OBJECT_ID      = 1990-055A
CENTER_NAME    = EARTH
REF_FRAME      = TEME
TIME_SYSTEM    = UTC
MEAN_ELEMENT_THEORY = SGP/SGP4

EPOCH          = 2026-03-20T22:41:54.000096
MEAN_MOTION    = 15.05707581
ECCENTRICITY   = .00153643
INCLINATION    = 62.7888
RA_OF_ASC_NODE = 297.1858
ARG_OF_PERICENTER = 193.1338
MEAN_ANOMALY   = 166.9365

EPHEMERIS_TYPE = 0
CLASSIFICATION_TYPE = U
NORAD_CAT_ID   = 20663
ELEMENT_SET_NO = 999
REV_AT_EPOCH   = 93801
BSTAR          = .13859657E-3
MEAN_MOTION_DOT = .1815E-4
MEAN_MOTION_DDOT = 0

CCSDS_OMM_VERS = 2.0
CREATION_DATE  = 
ORIGINATOR     = 

OBJECT_NAME    = SL-6 R/B(2)
OBJECT_ID      = 1990-055D
CENTER_NAME    = EARTH
REF_FRAME      = TEME
TIME_SYSTEM    = UTC
MEAN_ELEMENT_THEORY = SGP/SGP4

EPOCH          = 2026-03-20T09:52:59.766240
MEAN_MOTION    = 15.03644129
ECCENTRICITY   = .00264812
INCLINATION    = 62.7816
RA_OF_ASC_NODE = 217.3860
ARG_OF_PERICENTER = 349.5511
MEAN_ANOMALY   = 10.5034

EPHEMERIS_TYPE = 0
CLASSIFICATION_TYPE = U
NORAD_CAT_ID   = 20666
ELEMENT_SET_NO = 999
REV_AT_EPOCH   = 93980
BSTAR          = .14218331E-3
MEAN_MOTION_DOT = .1767E-4
MEAN_MOTION_DDOT = 0

CCSDS_OMM_VERS = 2.0
CREATION_DATE  = 
ORIGINATOR     = 

OBJECT_NAME    = SL-8 R/B
OBJECT_ID      = 1990-078B
CENTER_NAME    = EARTH
REF_FRAME      = TEME
TIME_SYSTEM    = UTC
MEAN_ELEMENT_THEORY = SGP/SGP4

EPOCH          = 2026-03-20T22:19:37.144128
MEAN_MOTION    = 14.89393985
ECCENTRICITY   = .03599702
INCLINATION    = 82.9011
RA_OF_ASC_NODE = 241.1966
ARG_OF_PERICENTER = 336.1332
MEAN_ANOMALY   = 22.3540

EPHEMERIS_TYPE = 0
CLASSIFICATION_TYPE = U
NORAD_CAT_ID   = 20775
ELEMENT_SET_NO = 999
REV_AT_EPOCH   = 81097
BSTAR          = .39789063E-3
MEAN_MOTION_DOT = .1346E-3
MEAN_MOTION_DDOT = 0

CCSDS_OMM_VERS = 2.0
CREATION_DATE  = 
ORIGINATOR     = 

OBJECT_NAME    = SL-8 R/B
OBJECT_ID      = 1991-006B
CENTER_NAME    = EARTH
REF_FRAME      = TEME
TIME_SYSTEM    = UTC
MEAN_ELEMENT_THEORY = SGP/SGP4

EPOCH          = 2026-03-20T23:28:47.903808
MEAN_MOTION    = 13.77495711
ECCENTRICITY   = .00223791
INCLINATION    = 82.9457
RA_OF_ASC_NODE = 161.6538
ARG_OF_PERICENTER = 7.3892
MEAN_ANOMALY   = 166.1947

EPHEMERIS_TYPE = 0
CLASSIFICATION_TYPE = U
NORAD_CAT_ID   = 21088
ELEMENT_SET_NO = 999
REV_AT_EPOCH   = 76562
BSTAR          = .71779427E-4
MEAN_MOTION_DOT = .87E-6
MEAN_MOTION_DDOT = 0

CCSDS_OMM_VERS = 2.0
CREATION_DATE  = 
ORIGINATOR     = 

OBJECT_NAME    = OKEAN-3
OBJECT_ID      = 1991-039A
CENTER_NAME    = EARTH
REF_FRAME      = TEME
TIME_SYSTEM    = UTC
MEAN_ELEMENT_THEORY = SGP/SGP4

EPOCH          = 2026-03-20T15:36:41.897952
MEAN_MOTION    = 15.04873391
ECCENTRICITY   = .0012809
INCLINATION    = 82.5186
RA_OF_ASC_NODE = 326.2261
ARG_OF_PERICENTER = 296.0526
MEAN_ANOMALY   = 63.9382

EPHEMERIS_TYPE = 0
CLASSIFICATION_TYPE = U
NORAD_CAT_ID   = 21397
ELEMENT_SET_NO = 999
REV_AT_EPOCH   = 86668
BSTAR          = .1474E-3
MEAN_MOTION_DOT = .2114E-4
MEAN_MOTION_DDOT = 0

CCSDS_OMM_VERS = 2.0
CREATION_DATE  = 
ORIGINATOR     = 

OBJECT_NAME    = COSMOS 2151
OBJECT_ID      = 1991-042A
CENTER_NAME    = EARTH
REF_FRAME      = TEME
TIME_SYSTEM    = UTC
MEAN_ELEMENT_THEORY = SGP/SGP4

EPOCH          = 2026-03-20T22:56:46.808448
MEAN_MOTION    = 15.00149004
ECCENTRICITY   = .00132117
INCLINATION    = 82.4935
RA_OF_ASC_NODE = 72.8047
ARG_OF_PERICENTER = 28.9315
MEAN_ANOMALY   = 331.2639

EPHEMERIS_TYPE = 0
CLASSIFICATION_TYPE = U
NORAD_CAT_ID   = 21422
ELEMENT_SET_NO = 999
REV_AT_EPOCH   = 86488
BSTAR          = .12892581E-3
MEAN_MOTION_DOT = .1638E-4
MEAN_MOTION_DDOT = 0

CCSDS_OMM_VERS = 2.0
CREATION_DATE  = 
ORIGINATOR     = 

OBJECT_NAME    = SL-14 R/B
OBJECT_ID      = 1991-042B
CENTER_NAME    = EARTH
REF_FRAME      = TEME
TIME_SYSTEM    = UTC
MEAN_ELEMENT_THEORY = SGP/SGP4

EPOCH          = 2026-03-20T18:20:45.012768
MEAN_MOTION    = 14.81840611
ECCENTRICITY   = .00165218
INCLINATION    = 82.4943
RA_OF_ASC_NODE = 209.7983
ARG_OF_PERICENTER = 200.1363
MEAN_ANOMALY   = 159.9202

EPHEMERIS_TYPE = 0
CLASSIFICATION_TYPE = U
NORAD_CAT_ID   = 21423
ELEMENT_SET_NO = 999
REV_AT_EPOCH   = 85471
BSTAR          = .55609427E-4
MEAN_MOTION_DOT = .463E-5
MEAN_MOTION_DDOT = 0

